NORAD_CAT_ID,OBJECT_NAME,OBJECT_TYPE,EPOCH,MEAN_MOTION,ECCENTRICITY,INCLINATION,RA_OF_ASC_NODE,ARG_OF_PERICENTER,MEAN_ANOMALY,BSTAR,MEAN_MOTION_DOT,MEAN_MOTION_DDOT,TLE_LINE0,TLE_LINE1,TLE_LINE2,SEMIMAJOR_AXIS,PERIOD,APOGEE,PERIGEE,DECAYED
55436.0,STARLINK-5640,PAYLOAD,2024-02-28 18:18:44,14.98337637,0.0003103,69.9996,170.1212,258.7817,101.2994,0.00012488,1.398e-05,0.0,0 STARLINK-5640,1 55436U 23014AX  24059.76302007  .00001398  00000-0  12488-3 0  9995,2 55436  69.9996 170.1212 0003103 258.7817 101.2994 14.98337637 59294,6950.169,96.107,574.191,569.878,0.0
55436.0,STARLINK-5640,PAYLOAD,2024-02-29 11:56:14,14.98333234,0.0002909,70.0003,168.2683,262.1771,97.9058,-9.8707e-07,-1.05e-06,0.0,0 STARLINK-5640,1 55436U 23014AX  24060.49738814 -.00000105  00000-0 -98707-6 0  9994,2 55436  70.0003 168.2683 0002909 262.1771  97.9058 14.98333234 59401,6950.183,96.107,574.07,570.026,0.0
55436.0,STARLINK-5640,PAYLOAD,2024-02-29 13:32:22,14.98332639,0.0003262,70.0006,168.1042,270.634,89.4445,0.00010476,1.157e-05,0.0,0 STARLINK-5640,1 55436U 23014AX  24060.56414592  .00001157  00000-0  10476-3 0  9996,2 55436  70.0006 168.1042 0003262 270.6340  89.4445 14.98332639 60351,6950.185,96.107,574.317,569.783,0.0
55436.0,STARLINK-5640,PAYLOAD,2024-02-29 16:44:38,14.98333363,0.0003173,70.0007,167.7676,269.8488,90.2307,0.00010954,1.214e-05,0.0,0 STARLINK-5640,1 55436U 23014AX  24060.69766512  .00001214  00000-0  10954-3 0  9997,2 55436  70.0007 167.7676 0003173 269.8488  90.2307 14.98333363 60378,6950.182,96.107,574.253,569.842,0.0
55436.0,STARLINK-5640,PAYLOAD,2024-03-01 11:58:15,14.9832835,0.0002947,70.0011,165.7474,265.5002,94.5821,9.2213e-05,1.007e-05,0.0,0 STARLINK-5640,1 55436U 23014AX  24061.49878802  .00001007  00000-0  92213-4 0  9991,2 55436  70.0011 165.7474 0002947 265.5002  94.5821 14.98328350 59556,6950.198,96.107,574.111,570.015,0.0
55436.0,STARLINK-5640,PAYLOAD,2024-03-01 13:34:23,14.98334118,0.0003135,70.0008,165.5791,268.7066,91.3734,7.7797e-05,8.35e-06,0.0,0 STARLINK-5640,1 55436U 23014AX  24061.56554474  .00000835  00000-0  77797-4 0  9993,2 55436  70.0008 165.5791 0003135 268.7066  91.3734 14.98334118 60501,6950.18,96.107,574.224,569.866,0.0
55436.0,STARLINK-5640,PAYLOAD,2024-03-01 16:46:39,14.98333562,0.0003123,70.0009,165.2425,268.2278,91.8523,7.3087e-05,7.79e-06,0.0,0 STARLINK-5640,1 55436U 23014AX  24061.69906484  .00000779  00000-0  73087-4 0  9994,2 55436  70.0009 165.2425 0003123 268.2278  91.8523 14.98333562 60525,6950.182,96.107,574.217,569.876,0.0
55436.0,STARLINK-5640,PAYLOAD,2024-03-02 12:00:16,14.98328438,0.0003165,70.001,163.2232,272.361,87.7186,-5.0791e-05,-6.99e-06,0.0,0 STARLINK-5640,1 55436U 23014AX  24062.50019193 -.00000699  00000-0 -50791-4 0  9997,2 55436  70.0010 163.2232 0003165 272.3610  87.7186 14.98328438 59706,6950.198,96.107,574.262,569.863,0.0
55436.0,STARLINK-5640,PAYLOAD,2024-03-02 13:36:24,14.98328473,0.0003137,70.0009,163.0545,272.3472,87.7328,-4.9989e-05,-6.89e-06,0.0,0 STARLINK-5640,1 55436U 23014AX  24062.56695194 -.00000689  00000-0 -49989-4 0  9990,2 55436  70.0009 163.0545 0003137 272.3472  87.7328 14.98328473 60657,6950.198,96.107,574.243,569.882,0.0
55436.0,STARLINK-5640,PAYLOAD,2024-03-02 16:48:40,14.98332129,0.0003083,70.0009,162.7179,272.5754,87.5052,-9.6886e-06,-2.09e-06,0.0,0 STARLINK-5640,1 55436U 23014AX  24062.70046844 -.00000209  00000-0 -96886-5 0  9995,2 55436  70.0009 162.7179 0003083 272.5754  87.5052 14.98332129 60678,6950.186,96.107,574.194,569.909,0.0
55436.0,STARLINK-5640,PAYLOAD,2024-03-03 12:02:16,14.98334273,0.0003139,70.0006,160.6992,266.2441,93.8359,3.2774e-05,2.98e-06,0.0,0 STARLINK-5640,1 55436U 23014AX  24063.50158478  .00000298  00000-0  32774-4 0  9992,2 55436  70.0006 160.6992 0003139 266.2441  93.8359 14.98334273 59850,6950.18,96.107,574.226,569.863,0.0
55436.0,STARLINK-5640,PAYLOAD,2024-03-03 13:38:24,14.98334446,0.0003112,70.0006,160.5307,265.9456,94.1347,3.4295e-05,3.16e-06,0.0,0 STARLINK-5640,1 55436U 23014AX  24063.56834435  .00000316  00000-0  34295-4 0  9993,2 55436  70.0006 160.5307 0003112 265.9456  94.1347 14.98334446 60802,6950.179,96.107,574.207,569.881,0.0
55436.0,STARLINK-5640,PAYLOAD,2024-03-03 16:50:40,14.98337714,0.0003047,70.0008,160.1944,264.7299,95.3512,7.0317e-05,7.46e-06,0.0,0 STARLINK-5640,1 55436U 23014AX  24063.70186085  .00000746  00000-0  70317-4 0  9992,2 55436  70.0008 160.1944 0003047 264.7299  95.3512 14.98337714 60826,6950.169,96.107,574.152,569.916,0.0
55436.0,STARLINK-5640,PAYLOAD,2024-03-04 12:04:16,14.98342765,0.0002934,70.0011,158.1748,263.4379,96.6446,0.00018966,2.171e-05,0.0,0 STARLINK-5640,1 55436U 23014AX  24064.50297109  .00002171  00000-0  18966-3 0  9996,2 55436  70.0011 158.1748 0002934 263.4379  96.6446 14.98342765 60000,6950.153,96.106,574.058,569.979,0.0
55436.0,STARLINK-5640,PAYLOAD,2024-03-04 13:40:24,14.98343373,0.0002925,70.001,158.006,267.6052,92.4772,0.00019528,2.239e-05,0.0,0 STARLINK-5640,1 55436U 23014AX  24064.56973024  .00002239  00000-0  19528-3 0  9999,2 55436  70.0010 158.0060 0002925 267.6052  92.4772 14.98343373 60955,6950.152,96.106,574.049,569.984,0.0
55436.0,STARLINK-5640,PAYLOAD,2024-03-04 15:16:32,14.98347146,0.0002933,70.0012,157.838,270.1043,89.978,0.00016245,1.847e-05,0.0,0 STARLINK-5640,1 55436U 23014AX  24064.63648821  .00001847  00000-0  16245-3 0  9998,2 55436  70.0012 157.8380 0002933 270.1043  89.9780 14.98347146 60960,6950.14,96.106,574.043,569.966,0.0
55436.0,STARLINK-5640,PAYLOAD,2024-03-04 23:17:13,14.98336261,0.0003054,70.0011,156.9961,266.0779,94.0031,6.3277e-05,6.62e-06,0.0,0 STARLINK-5640,1 55436U 23014AX  24064.97029487  .00000662  00000-0  63277-4 0  9998,2 55436  70.0011 156.9961 0003054 266.0779  94.0031 14.98336261 60073,6950.174,96.107,574.161,569.916,0.0
55436.0,STARLINK-5640,PAYLOAD,2024-03-05 13:42:28,14.98313627,0.0002876,70.0008,155.4818,267.2105,92.8725,-0.00020393,-2.524e-05,0.0,0 STARLINK-5640,1 55436U 23014AX  24065.57116093 -.00002524  00000-0 -20393-3 0  9997,2 55436  70.0008 155.4818 0002876 267.2105  92.8725 14.98313627 61103,6950.244,96.108,574.107,570.11,0.0
55436.0,STARLINK-5640,PAYLOAD,2024-03-05 15:18:36,14.98314177,0.0002903,70.0008,155.3134,264.212,95.8708,-0.00018806,-2.335e-05,0.0,0 STARLINK-5640,1 55436U 23014AX  24065.63792059 -.00002335  00000-0 -18806-3 0  9992,2 55436  70.0008 155.3134 0002903 264.2120  95.8708 14.98314177 60179,6950.242,96.108,574.124,570.089,0.0
55436.0,STARLINK-5640,PAYLOAD,2024-03-06 12:08:20,14.98331378,0.0003084,69.9999,153.1238,267.1374,92.9432,-9.5525e-05,-1.233e-05,0.0,0 STARLINK-5640,1 55436U 23014AX  24066.50579087 -.00001233  00000-0 -95525-4 0  9993,2 55436  69.9999 153.1238 0003084 267.1374  92.9432 14.98331378 60309,6950.189,96.107,574.197,569.91,0.0
55436.0,STARLINK-5640,PAYLOAD,2024-03-06 13:44:28,14.98335415,0.000296,70.0004,152.956,267.1096,92.9724,-4.779e-05,-6.63e-06,0.0,0 STARLINK-5640,1 55436U 23014AX  24066.57254725 -.00000663  00000-0 -47790-4 0  9996,2 55436  70.0004 152.9560 0002960 267.1096  92.9724 14.98335415 61252,6950.176,96.107,574.098,569.984,0.0
55436.0,STARLINK-5640,PAYLOAD,2024-03-06 15:20:35,14.98337922,0.0003052,70.0003,152.7881,268.4924,91.5886,3.0004e-07,-8.9e-07,0.0,0 STARLINK-5640,1 55436U 23014AX  24066.63930490 -.00000089  00000-0  30004-6 0  9996,2 55436  70.0003 152.7881 0003052 268.4924  91.5886 14.98337922 60328,6950.168,96.106,574.155,569.912,0.0
55436.0,STARLINK-5640,PAYLOAD,2024-03-07 13:46:29,14.98332457,0.0002972,70.0014,150.4312,268.1496,91.9322,0.00051136,6.014e-05,0.0,0 STARLINK-5640,1 55436U 23014AX  24067.57395328  .00006014  00000-0  51136-3 0  9994,2 55436  70.0014 150.4312 0002972 268.1496  91.9322 14.98332457 61402,6950.185,96.107,574.116,569.985,0.0
55436.0,STARLINK-5640,PAYLOAD,2024-03-08 12:12:21,14.98346017,0.0002905,70.0013,148.075,267.4461,92.6365,0.00032436,3.781e-05,0.0,0 STARLINK-5640,1 55436U 23014AX  24068.50858207  .00003781  00000-0  32436-3 0  9998,2 55436  70.0013 148.0750 0002905 267.4461  92.6365 14.98346017 61547,6950.143,96.106,574.027,569.989,0.0
55436.0,STARLINK-5640,PAYLOAD,2024-03-08 15:24:37,14.98348791,0.0002919,70.0013,147.7383,269.4235,90.6589,0.00031742,3.698e-05,0.0,0 STARLINK-5640,1 55436U 23014AX  24068.64209938  .00003698  00000-0  31742-3 0  9990,2 55436  70.0013 147.7383 0002919 269.4235  90.6589 14.98348791 60626,6950.135,96.106,574.029,569.971,0.0
55436.0,STARLINK-5640,PAYLOAD,2024-03-09 04:13:42,14.98338746,0.0002519,70.0025,146.3936,266.3183,93.7688,8.6509e-05,9.4e-06,0.0,0 STARLINK-5640,1 55436U 23014AX  24069.17618193  .00000940  00000-0  86509-4 0  9995,2 55436  70.0025 146.3936 0002519 266.3183  93.7688 14.98338746 60704,6950.166,96.106,573.782,570.28,0.0
55436.0,STARLINK-5640,PAYLOAD,2024-03-09 12:14:22,14.98334381,0.0002297,70.0022,145.5521,257.0022,103.0881,-0.00011862,-1.508e-05,0.0,0 STARLINK-5640,1 55436U 23014AX  24069.50998278 -.00001508  00000-0 -11862-3 0  9999,2 55436  70.0022 145.5521 0002297 257.0022 103.0881 14.98334381 61694,6950.179,96.107,573.641,570.448,0.0
55436.0,STARLINK-5640,PAYLOAD,2024-03-10 04:15:43,14.98332189,0.0002335,70.0013,143.8682,261.2458,98.8437,6.2235e-06,-1.9e-07,0.0,0 STARLINK-5640,1 55436U 23014AX  24070.17758633 -.00000019  00000-0  62235-5 0  9990,2 55436  70.0013 143.8682 0002335 261.2458  98.8437 14.98332189 60855,6950.186,96.107,573.674,570.428,0.0
55436.0,STARLINK-5640,PAYLOAD,2024-03-10 12:16:23,14.98329935,0.0002746,70.0001,143.0254,267.2982,92.7863,-4.859e-05,-6.73e-06,0.0,0 STARLINK-5640,1 55436U 23014AX  24070.51138782 -.00000673  00000-0 -48590-4 0  9999,2 55436  70.0001 143.0254 0002746 267.2982  92.7863 14.98329935 61844,6950.193,96.107,573.967,570.15,0.0
55436.0,STARLINK-5640,PAYLOAD,2024-03-10 21:53:11,14.98351208,0.0002775,70.0007,142.0157,272.354,87.7301,-0.00038561,-4.693e-05,0.0,0 STARLINK-5640,1 55436U 23014AX  24070.91193838 -.00004693  00000-0 -38561-3 0  9998,2 55436  70.0007 142.0157 0002775 272.3540  87.7301 14.98351208 61906,6950.127,96.106,573.921,570.064,0.0
